[
    {
        "Altitude(m)": 607911.0096119908,
        "Argument of Periapsis(deg)": 0.0,
        "Eccentricity": 0.0,
        "Inclination(deg)": 60.0,
        "Latitude(deg)": -14.292947464743659,
        "Longitude(deg)": -1.5573214474224955,
        "Mean Anomaly(deg)": -163.6364,
        "RAAN(deg)": 270.0,
        "Satellite Name": "Test1 1200",
        "Satellite Number": 1200,
        "Semi-Major Axis(m)": 6980739.136638005,
        "Time(s)": 0
    },
    {
        "Altitude(m)": 608060.2431118471,
        "Argument of Periapsis(deg)": 0.00010418945913296404,
        "Eccentricity": 0.0,
        "Inclination(deg)": 60.0,
        "Latitude(deg)": -14.826608245799783,
        "Longitude(deg)": -1.268710792390928,
        "Mean Anomaly(deg)": -163.01629385453816,
        "RAAN(deg)": 269.99957995086027,
        "Satellite Name": "Test1 1200",
        "Satellite Number": 1200,
        "Semi-Major Axis(m)": 6980739.136638005,
        "Time(s)": 10
    },
    {
        "Altitude(m)": 608211.906809562,
        "Argument of Periapsis(deg)": 0.0002083789182659281,
        "Eccentricity": 0.0,
        "Inclination(deg)": 60.0,
        "Latitude(deg)": -15.359752804057853,
        "Longitude(deg)": -0.9784913427346644,
        "Mean Anomaly(deg)": -162.3961877090764,
        "RAAN(deg)": 269.9991599017205,
        "Satellite Name": "Test1 1200",
        "Satellite Number": 1200,
        "Semi-Major Axis(m)": 6980739.136638005,
        "Time(s)": 20
    },
    {
        "Altitude(m)": 608365.9526237558,
        "Argument of Periapsis(deg)": 0.00031256837739889213,
        "Eccentricity": 0.0,
        "Inclination(deg)": 60.0,
        "Latitude(deg)": -15.892359930247057,
        "Longitude(deg)": -0.6865956309005558,
        "Mean Anomaly(deg)": -161.7760815636145,
        "RAAN(deg)": 269.9987398525808,
        "Satellite Name": "Test1 1200",
        "Satellite Number": 1200,
        "Semi-Major Axis(m)": 6980739.136638005,
        "Time(s)": 30
    },
    {
        "Altitude(m)": 608522.331275517,
        "Argument of Periapsis(deg)": 0.0004167578365318562,
        "Eccentricity": 0.0,
        "Inclination(deg)": 60.0,
        "Latitude(deg)": -16.424408082833715,
        "Longitude(deg)": -0.3929546703276956,
        "Mean Anomaly(deg)": -161.15597541815276,
        "RAAN(deg)": 269.99831980344106,
        "Satellite Name": "Test1 1200",
        "Satellite Number": 1200,
        "Semi-Major Axis(m)": 6980739.136638005,
        "Time(s)": 40
    },
    {
        "Altitude(m)": 608680.9923097021,
        "Argument of Periapsis(deg)": 0.0005209472956648203,
        "Eccentricity": 0.0,
        "Inclination(deg)": 60.0,
        "Latitude(deg)": -16.95587537200348,
        "Longitude(deg)": -0.0974989201177811,
        "Mean Anomaly(deg)": -160.53586927269092,
        "RAAN(deg)": 269.9978997543013,
        "Satellite Name": "Test1 1200",
        "Satellite Number": 1200,
        "Semi-Major Axis(m)": 6980739.136638005,
        "Time(s)": 50
    },
    {
        "Altitude(m)": 608841.8841168109,
        "Argument of Periapsis(deg)": 0.0006251367547977843,
        "Eccentricity": 0.0,
        "Inclination(deg)": 60.0,
        "Latitude(deg)": -17.486739543158297,
        "Longitude(deg)": 0.19984226400402985,
        "Mean Anomaly(deg)": -159.91576312722904,
        "RAAN(deg)": 269.99747970516154,
        "Satellite Name": "Test1 1200",
        "Satellite Number": 1200,
        "Semi-Major Axis(m)": 6980739.136638005,
        "Time(s)": 60
    },
    {
        "Altitude(m)": 609004.9539554117,
        "Argument of Periapsis(deg)": 0.0007293262139307483,
        "Eccentricity": 0.0,
        "Inclination(deg)": 60.0,
        "Latitude(deg)": -18.01697795991128,
        "Longitude(deg)": 0.4991411795922412,
        "Mean Anomaly(deg)": -159.29565698176725,
        "RAAN(deg)": 269.9970596560218,
        "Satellite Name": "Test1 1200",
        "Satellite Number": 1200,
        "Semi-Major Axis(m)": 6980739.136638005,
        "Time(s)": 70
    },
    {
        "Altitude(m)": 609170.1479750781,
        "Argument of Periapsis(deg)": 0.0008335156730637124,
        "Eccentricity": 0.0,
        "Inclination(deg)": 60.0,
        "Latitude(deg)": -18.546567586556403,
        "Longitude(deg)": 0.8004708153961807,
        "Mean Anomaly(deg)": -158.6755508363054,
        "RAAN(deg)": 269.99663960688207,
        "Satellite Name": "Test1 1200",
        "Satellite Number": 1200,
        "Semi-Major Axis(m)": 6980739.136638005,
        "Time(s)": 80
    },
    {
        "Altitude(m)": 609337.4112399076,
        "Argument of Periapsis(deg)": 0.0009377051321966765,
        "Eccentricity": 0.0,
        "Inclination(deg)": 60.0,
        "Latitude(deg)": -19.075484969983368,
        "Longitude(deg)": 1.1039054030558084,
        "Mean Anomaly(deg)": -158.05544469084356,
        "RAAN(deg)": 269.99621955774234,
        "Satellite Name": "Test1 1200",
        "Satellite Number": 1200,
        "Semi-Major Axis(m)": 6980739.136638005,
        "Time(s)": 90
    },
    {
        "Altitude(m)": 609506.687752496,
        "Argument of Periapsis(deg)": 0.0010418945913296407,
        "Eccentricity": 0.0,
        "Inclination(deg)": 60.0,
        "Latitude(deg)": -19.603706221016203,
        "Longitude(deg)": 1.409520969726999,
        "Mean Anomaly(deg)": -157.43533854538168,
        "RAAN(deg)": 269.99579950860254,
        "Satellite Name": "Test1 1200",
        "Satellite Number": 1200,
        "Semi-Major Axis(m)": 6980739.136638005,
        "Time(s)": 100
    },
    {
        "Altitude(m)": 609677.9204784702,
        "Argument of Periapsis(deg)": 0.0011460840504626045,
        "Eccentricity": 0.0,
        "Inclination(deg)": 60.0,
        "Latitude(deg)": -20.131206995150784,
        "Longitude(deg)": 1.7173943787793429,
        "Mean Anomaly(deg)": -156.81523239991986,
        "RAAN(deg)": 269.99537945946287,
        "Satellite Name": "Test1 1200",
        "Satellite Number": 1200,
        "Semi-Major Axis(m)": 6980739.136638005,
        "Time(s)": 110
    },
    {
        "Altitude(m)": 609851.0513714682,
        "Argument of Periapsis(deg)": 0.0012502735095955685,
        "Eccentricity": 0.0,
        "Inclination(deg)": 60.0,
        "Latitude(deg)": -20.657962472660998,
        "Longitude(deg)": 2.0276038843325934,
        "Mean Anomaly(deg)": -156.19512625445805,
        "RAAN(deg)": 269.99495941032313,
        "Satellite Name": "Test1 1200",
        "Satellite Number": 1200,
        "Semi-Major Axis(m)": 6980739.136638005,
        "Time(s)": 120
    },
    {
        "Altitude(m)": 610026.021398625,
        "Argument of Periapsis(deg)": 0.0013544629687285324,
        "Eccentricity": 0.0,
        "Inclination(deg)": 60.0,
        "Latitude(deg)": -21.183947338046448,
        "Longitude(deg)": 2.3402296867707366,
        "Mean Anomaly(deg)": -155.5750201089962,
        "RAAN(deg)": 269.99453936118334,
        "Satellite Name": "Test1 1200",
        "Satellite Number": 1200,
        "Semi-Major Axis(m)": 6980739.136638005,
        "Time(s)": 130
    },
    {
        "Altitude(m)": 610202.7705665076,
        "Argument of Periapsis(deg)": 0.0014586524278614966,
        "Eccentricity": 0.0,
        "Inclination(deg)": 60.0,
        "Latitude(deg)": -21.709135758798357,
        "Longitude(deg)": 2.6553529763742985,
        "Mean Anomaly(deg)": -154.95491396353432,
        "RAAN(deg)": 269.9941193120436,
        "Satellite Name": "Test1 1200",
        "Satellite Number": 1200,
        "Semi-Major Axis(m)": 6980739.136638005,
        "Time(s)": 140
    },
    {
        "Altitude(m)": 610381.2379475074,
        "Argument of Periapsis(deg)": 0.0015628418869944607,
        "Eccentricity": 0.0,
        "Inclination(deg)": 60.0,
        "Latitude(deg)": -22.233501363447573,
        "Longitude(deg)": 2.9730564908259605,
        "Mean Anomaly(deg)": -154.3348078180725,
        "RAAN(deg)": 269.9936992629039,
        "Satellite Name": "Test1 1200",
        "Satellite Number": 1200,
        "Semi-Major Axis(m)": 6980739.136638005,
        "Time(s)": 150
    },
    {
        "Altitude(m)": 610561.3617066621,
        "Argument of Periapsis(deg)": 0.0016670313461274247,
        "Eccentricity": 0.0,
        "Inclination(deg)": 60.0,
        "Latitude(deg)": -22.757017218868008,
        "Longitude(deg)": 3.2934250737218624,
        "Mean Anomaly(deg)": -153.71470167261066,
        "RAAN(deg)": 269.99327921376414,
        "Satellite Name": "Test1 1200",
        "Satellite Number": 1200,
        "Semi-Major Axis(m)": 6980739.136638005,
        "Time(s)": 160
    },
    {
        "Altitude(m)": 610743.079128915,
        "Argument of Periapsis(deg)": 0.0017712208052603888,
        "Eccentricity": 0.0,
        "Inclination(deg)": 60.0,
        "Latitude(deg)": -23.279655806806996,
        "Longitude(deg)": 3.6165447212188027,
        "Mean Anomaly(deg)": -153.09459552714893,
        "RAAN(deg)": 269.9928591646244,
        "Satellite Name": "Test1 1200",
        "Satellite Number": 1200,
        "Semi-Major Axis(m)": 6980739.136638005,
        "Time(s)": 170
    },
    {
        "Altitude(m)": 610926.3266467615,
        "Argument of Periapsis(deg)": 0.001875410264393353,
        "Eccentricity": 0.0,
        "Inclination(deg)": 60.0,
        "Latitude(deg)": -23.801388999606672,
        "Longitude(deg)": 3.942503142561668,
        "Mean Anomaly(deg)": -152.47448938168705,
        "RAAN(deg)": 269.9924391154846,
        "Satellite Name": "Test1 1200",
        "Satellite Number": 1200,
        "Semi-Major Axis(m)": 6980739.136638005,
        "Time(s)": 180
    },
    {
        "Altitude(m)": 611111.0398683083,
        "Argument of Periapsis(deg)": 0.0019795997235263173,
        "Eccentricity": 0.0,
        "Inclination(deg)": 60.0,
        "Latitude(deg)": -24.322188035084235,
        "Longitude(deg)": 4.271390321611147,
        "Mean Anomaly(deg)": -151.85438323622526,
        "RAAN(deg)": 269.99201906634494,
        "Satellite Name": "Test1 1200",
        "Satellite Number": 1200,
        "Semi-Major Axis(m)": 6980739.136638005,
        "Time(s)": 190
    }
]